[
    {
        "OBJECT_NAME": "COSMOS 2464 [GLONASS-M]",
        "OBJECT_ID": "2010-041C",
        "EPOCH": "2026-07-21T16:26:39.036192",
        "MEAN_MOTION": 2.13098608,
        "ECCENTRICITY": 0.00344139,
        "INCLINATION": 63.9193,
        "RA_OF_ASC_NODE": 189.0846,
        "ARG_OF_PERICENTER": 10.5006,
        "MEAN_ANOMALY": 119.9698,
        "EPHEMERIS_TYPE": 0,
        "CLASSIFICATION_TYPE": "U",
        "NORAD_CAT_ID": 37139,
        "ELEMENT_SET_NO": 999,
        "REV_AT_EPOCH": 12362,
        "BSTAR": 0,
        "MEAN_MOTION_DOT": 9e-07,
        "MEAN_MOTION_DDOT": 0
    },
    {
        "OBJECT_NAME": "COSMOS 2471 [GLONASS-K]",
        "OBJECT_ID": "2011-009A",
        "EPOCH": "2026-07-21T11:54:38.613600",
        "MEAN_MOTION": 2.12911193,
        "ECCENTRICITY": 0.00079437,
        "INCLINATION": 65.3862,
        "RA_OF_ASC_NODE": 313.3283,
        "ARG_OF_PERICENTER": 326.6419,
        "MEAN_ANOMALY": 36.3546,
        "EPHEMERIS_TYPE": 0,
        "CLASSIFICATION_TYPE": "U",
        "NORAD_CAT_ID": 37372,
        "ELEMENT_SET_NO": 999,
        "REV_AT_EPOCH": 11981,
        "BSTAR": 0,
        "MEAN_MOTION_DOT": -8.8e-07,
        "MEAN_MOTION_DDOT": 0
    },
    {
        "OBJECT_NAME": "COSMOS 2474 [GLONASS-M]",
        "OBJECT_ID": "2011-055A",
        "EPOCH": "2026-07-21T06:56:38.499936",
        "MEAN_MOTION": 2.13101302,
        "ECCENTRICITY": 0.00098208,
        "INCLINATION": 65.3089,
        "RA_OF_ASC_NODE": 71.7336,
        "ARG_OF_PERICENTER": 243.2289,
        "MEAN_ANOMALY": 114.2098,
        "EPHEMERIS_TYPE": 0,
        "CLASSIFICATION_TYPE": "U",
        "NORAD_CAT_ID": 37829,
        "ELEMENT_SET_NO": 999,
        "REV_AT_EPOCH": 11517,
        "BSTAR": 0,
        "MEAN_MOTION_DOT": -5.3e-07,
        "MEAN_MOTION_DDOT": 0
    },
    {
        "OBJECT_NAME": "COSMOS 2476 [GLONASS-M]",
        "OBJECT_ID": "2011-064A",
        "EPOCH": "2026-07-21T08:34:33.953952",
        "MEAN_MOTION": 2.13103526,
        "ECCENTRICITY": 0.00220393,
        "INCLINATION": 65.2896,
        "RA_OF_ASC_NODE": 71.7181,
        "ARG_OF_PERICENTER": 235.5042,
        "MEAN_ANOMALY": 223.4275,
        "EPHEMERIS_TYPE": 0,
        "CLASSIFICATION_TYPE": "U",
        "NORAD_CAT_ID": 37867,
        "ELEMENT_SET_NO": 999,
        "REV_AT_EPOCH": 11449,
        "BSTAR": 0,
        "MEAN_MOTION_DOT": -5.3e-07,
        "MEAN_MOTION_DDOT": 0
    },
    {
        "OBJECT_NAME": "COSMOS 2477 [GLONASS-M]",
        "OBJECT_ID": "2011-064B",
        "EPOCH": "2026-07-22T15:09:47.882016",
        "MEAN_MOTION": 2.13102887,
        "ECCENTRICITY": 0.00190889,
        "INCLINATION": 65.2968,
        "RA_OF_ASC_NODE": 71.7547,
        "ARG_OF_PERICENTER": 236.1337,
        "MEAN_ANOMALY": 300.7696,
        "EPHEMERIS_TYPE": 0,
        "CLASSIFICATION_TYPE": "U",
        "NORAD_CAT_ID": 37868,
        "ELEMENT_SET_NO": 999,
        "REV_AT_EPOCH": 11451,
        "BSTAR": 0,
        "MEAN_MOTION_DOT": -5e-07,
        "MEAN_MOTION_DDOT": 0
    },
    {
        "OBJECT_NAME": "COSMOS 2475 [GLONASS-M]",
        "OBJECT_ID": "2011-064C",
        "EPOCH": "2026-07-21T06:32:12.705792",
        "MEAN_MOTION": 2.13101636,
        "ECCENTRICITY": 0.00245165,
        "INCLINATION": 65.3028,
        "RA_OF_ASC_NODE": 71.8225,
        "ARG_OF_PERICENTER": 250.363,
        "MEAN_ANOMALY": 278.6004,
        "EPHEMERIS_TYPE": 0,
        "CLASSIFICATION_TYPE": "U",
        "NORAD_CAT_ID": 37869,
        "ELEMENT_SET_NO": 999,
        "REV_AT_EPOCH": 11449,
        "BSTAR": 0,
        "MEAN_MOTION_DOT": -5.3e-07,
        "MEAN_MOTION_DDOT": 0
    },
    {
        "OBJECT_NAME": "COSMOS 2478 [GLONASS-M]",
        "OBJECT_ID": "2011-071A",
        "EPOCH": "2026-07-20T07:22:16.518432",
        "MEAN_MOTION": 2.13015779,
        "ECCENTRICITY": 0.00175279,
        "INCLINATION": 65.4411,
        "RA_OF_ASC_NODE": 313.7458,
        "ARG_OF_PERICENTER": 217.6183,
        "MEAN_ANOMALY": 157.2144,
        "EPHEMERIS_TYPE": 0,
        "CLASSIFICATION_TYPE": "U",
        "NORAD_CAT_ID": 37938,
        "ELEMENT_SET_NO": 999,
        "REV_AT_EPOCH": 11385,
        "BSTAR": 0,
        "MEAN_MOTION_DOT": -8.3e-07,
        "MEAN_MOTION_DDOT": 0
    },
    {
        "OBJECT_NAME": "COSMOS 2485 [GLONASS-M]",
        "OBJECT_ID": "2013-019A",
        "EPOCH": "2026-07-20T05:27:30.719232",
        "MEAN_MOTION": 2.1310305,
        "ECCENTRICITY": 0.00225577,
        "INCLINATION": 65.4381,
        "RA_OF_ASC_NODE": 72.496,
        "ARG_OF_PERICENTER": 230.6909,
        "MEAN_ANOMALY": 129.1761,
        "EPHEMERIS_TYPE": 0,
        "CLASSIFICATION_TYPE": "U",
        "NORAD_CAT_ID": 39155,
        "ELEMENT_SET_NO": 999,
        "REV_AT_EPOCH": 10298,
        "BSTAR": 0,
        "MEAN_MOTION_DOT": -4.9e-07,
        "MEAN_MOTION_DDOT": 0
    },
    {
        "OBJECT_NAME": "COSMOS 2492 [GLONASS-M]",
        "OBJECT_ID": "2014-012A",
        "EPOCH": "2026-07-22T12:46:55.998912",
        "MEAN_MOTION": 2.13103176,
        "ECCENTRICITY": 0.00103071,
        "INCLINATION": 65.2744,
        "RA_OF_ASC_NODE": 312.7343,
        "ARG_OF_PERICENTER": 316.3437,
        "MEAN_ANOMALY": 43.5947,
        "EPHEMERIS_TYPE": 0,
        "CLASSIFICATION_TYPE": "U",
        "NORAD_CAT_ID": 39620,
        "ELEMENT_SET_NO": 999,
        "REV_AT_EPOCH": 9599,
        "BSTAR": 0,
        "MEAN_MOTION_DOT": -9e-07,
        "MEAN_MOTION_DDOT": 0
    },
    {
        "OBJECT_NAME": "COSMOS 2500 [GLONASS-M]",
        "OBJECT_ID": "2014-032A",
        "EPOCH": "2026-07-21T18:19:17.249376",
        "MEAN_MOTION": 2.13105857,
        "ECCENTRICITY": 0.00085065,
        "INCLINATION": 65.2101,
        "RA_OF_ASC_NODE": 312.5047,
        "ARG_OF_PERICENTER": 191.606,
        "MEAN_ANOMALY": 168.3951,
        "EPHEMERIS_TYPE": 0,
        "CLASSIFICATION_TYPE": "U",
        "NORAD_CAT_ID": 40001,
        "ELEMENT_SET_NO": 999,
        "REV_AT_EPOCH": 9419,
        "BSTAR": 0,
        "MEAN_MOTION_DOT": -8.9e-07,
        "MEAN_MOTION_DDOT": 0
    },
    {
        "OBJECT_NAME": "COSMOS 2501 [GLONASS-K]",
        "OBJECT_ID": "2014-075A",
        "EPOCH": "2026-07-21T13:21:28.563840",
        "MEAN_MOTION": 2.1310138,
        "ECCENTRICITY": 0.00225959,
        "INCLINATION": 63.6189,
        "RA_OF_ASC_NODE": 189.1825,
        "ARG_OF_PERICENTER": 212.4587,
        "MEAN_ANOMALY": 147.4043,
        "EPHEMERIS_TYPE": 0,
        "CLASSIFICATION_TYPE": "U",
        "NORAD_CAT_ID": 40315,
        "ELEMENT_SET_NO": 999,
        "REV_AT_EPOCH": 9058,
        "BSTAR": 0,
        "MEAN_MOTION_DOT": 9e-07,
        "MEAN_MOTION_DDOT": 0
    },
    {
        "OBJECT_NAME": "COSMOS 2514 [GLONASS-M]",
        "OBJECT_ID": "2016-008A",
        "EPOCH": "2026-07-20T14:27:49.472352",
        "MEAN_MOTION": 2.13102623,
        "ECCENTRICITY": 0.00124841,
        "INCLINATION": 64.9994,
        "RA_OF_ASC_NODE": 311.8597,
        "ARG_OF_PERICENTER": 201.8566,
        "MEAN_ANOMALY": 158.1123,
        "EPHEMERIS_TYPE": 0,
        "CLASSIFICATION_TYPE": "U",
        "NORAD_CAT_ID": 41330,
        "ELEMENT_SET_NO": 999,
        "REV_AT_EPOCH": 8133,
        "BSTAR": 0,
        "MEAN_MOTION_DOT": -8.5e-07,
        "MEAN_MOTION_DDOT": 0
    },
    {
        "OBJECT_NAME": "COSMOS 2516 [GLONASS-M]",
        "OBJECT_ID": "2016-032A",
        "EPOCH": "2026-07-21T03:48:52.000416",
        "MEAN_MOTION": 2.13106645,
        "ECCENTRICITY": 0.00180256,
        "INCLINATION": 63.8463,
        "RA_OF_ASC_NODE": 189.8935,
        "ARG_OF_PERICENTER": 215.076,
        "MEAN_ANOMALY": 144.8074,
        "EPHEMERIS_TYPE": 0,
        "CLASSIFICATION_TYPE": "U",
        "NORAD_CAT_ID": 41554,
        "ELEMENT_SET_NO": 999,
        "REV_AT_EPOCH": 7895,
        "BSTAR": 0,
        "MEAN_MOTION_DOT": 8.9e-07,
        "MEAN_MOTION_DDOT": 0
    }
]
