{"epoch":1784762836,"count":18316,"objects":[{"id":"37139","name":"COSMOS 2464 (GLONASS)","type":"PAYLOAD","l1":"1 37139U 10041C   26202.68517403  .00000090  00000-0  00000-0 0  9994","l2":"2 37139  63.9193 189.0846 0034414  10.5006 119.9698  2.13098608123624"},{"id":"37372","name":"COSMOS 2471 (GLONASS)","type":"PAYLOAD","l1":"1 37372U 11009A   26202.49628025 -.00000088  00000-0  00000-0 0  9998","l2":"2 37372  65.3862 313.3283 0007944 326.6419  36.3546  2.12911193119818"},{"id":"37829","name":"COSMOS 2474 (GLONASS)","type":"PAYLOAD","l1":"1 37829U 11055A   26202.28933449 -.00000053  00000-0  00000-0 0  9994","l2":"2 37829  65.3089  71.7336 0009821 243.2289 114.2098  2.13101302115172"},{"id":"37867","name":"COSMOS 2476 (GLONASS)","type":"PAYLOAD","l1":"1 37867U 11064A   26202.35733743 -.00000053  00000-0  00000-0 0  9999","l2":"2 37867  65.2896  71.7181 0022039 235.5042 223.4275  2.13103526114498"},{"id":"37868","name":"COSMOS 2477 (GLONASS)","type":"PAYLOAD","l1":"1 37868U 11064B   26203.63180419 -.00000050  00000-0  00000-0 0  9995","l2":"2 37868  65.2968  71.7547 0019089 236.1337 300.7696  2.13102887114518"},{"id":"37869","name":"COSMOS 2475 (GLONASS)","type":"PAYLOAD","l1":"1 37869U 11064C   26202.27236928 -.00000053  00000-0  00000-0 0  9995","l2":"2 37869  65.3028  71.8225 0024516 250.3630 278.6004  2.13101636114490"},{"id":"37938","name":"COSMOS 2478 (GLONASS)","type":"PAYLOAD","l1":"1 37938U 11071A   26201.30713563 -.00000083  00000-0  00000-0 0  9991","l2":"2 37938  65.4411 313.7458 0017528 217.6183 157.2144  2.13015779113852"},{"id":"39155","name":"COSMOS 2485 (GLONASS)","type":"PAYLOAD","l1":"1 39155U 13019A   26201.22743888 -.00000049  00000-0  00000-0 0  9994","l2":"2 39155  65.4381  72.4960 0022558 230.6909 129.1761  2.13103050102983"},{"id":"39620","name":"COSMOS 2492 (GLONASS)","type":"PAYLOAD","l1":"1 39620U 14012A   26203.53259258 -.00000090  00000-0  00000-0 0  9990","l2":"2 39620  65.2744 312.7343 0010307 316.3437  43.5947  2.13103176 95999"},{"id":"40001","name":"COSMOS 2500 (GLONASS)","type":"PAYLOAD","l1":"1 40001U 14032A   26202.76339409 -.00000089  00000-0  00000-0 0  9996","l2":"2 40001  65.2101 312.5047 0008507 191.6060 168.3951  2.13105857 94195"},{"id":"40315","name":"COSMOS 2501 (GLONASS)","type":"PAYLOAD","l1":"1 40315U 14075A   26202.55658060  .00000090  00000-0  00000-0 0  9996","l2":"2 40315  63.6189 189.1825 0022596 212.4587 147.4043  2.13101380 90589"},{"id":"41330","name":"COSMOS 2514 (GLONASS)","type":"PAYLOAD","l1":"1 41330U 16008A   26201.60265593 -.00000085  00000-0  00000-0 0  9997","l2":"2 41330  64.9994 311.8597 0012484 201.8566 158.1123  2.13102623 81331"},{"id":"41554","name":"COSMOS 2516 (GLONASS)","type":"PAYLOAD","l1":"1 41554U 16032A   26202.15893519  .00000089  00000-0  00000-0 0  9991","l2":"2 41554  63.8463 189.8935 0018026 215.0760 144.8074  2.13106645 78957"}]}